NORAD_CAT_ID,OBJECT_NAME,OBJECT_TYPE,EPOCH,MEAN_MOTION,ECCENTRICITY,INCLINATION,RA_OF_ASC_NODE,ARG_OF_PERICENTER,MEAN_ANOMALY,BSTAR,MEAN_MOTION_DOT,MEAN_MOTION_DDOT,TLE_LINE0,TLE_LINE1,TLE_LINE2,SEMIMAJOR_AXIS,PERIOD,APOGEE,PERIGEE,DECAYED
51960.0,STARLINK-3691,PAYLOAD,2024-06-25 13:32:39,15.04769465,0.0001776,53.0553,308.332,79.9575,280.1614,-1.1434e-05,-4.4e-06,0.0,0 STARLINK-3691,1 51960U 22025E   24177.56434870 -.00000440  00000-0 -11434-4 0  9997,2 51960  53.0553 308.3320 0001776  79.9575 280.1614 15.04769465127083,6930.35,95.696,553.446,550.985,0.0
51960.0,STARLINK-3691,PAYLOAD,2024-06-25 16:43:56,15.0477433,0.0001483,53.0573,307.732,89.6671,270.4487,-2.3809e-05,-6.17e-06,0.0,0 STARLINK-3691,1 51960U 22025E   24177.69718173 -.00000617  00000-0 -23809-4 0  9997,2 51960  53.0573 307.7320 0001483  89.6671 270.4487 15.04774330128198,6930.335,95.695,553.228,551.173,0.0
51960.0,STARLINK-3691,PAYLOAD,2024-06-26 11:51:39,15.04773251,0.0001464,53.0562,304.1631,110.8157,249.2989,-2.4875e-05,-6.32e-06,0.0,0 STARLINK-3691,1 51960U 22025E   24178.49420575 -.00000632  00000-0 -24875-4 0  9993,2 51960  53.0562 304.1631 0001464 110.8157 249.2989 15.04773251127222,6930.339,95.695,553.218,551.189,0.0
51960.0,STARLINK-3691,PAYLOAD,2024-06-27 13:21:56,15.04769684,0.0001351,53.0553,299.4047,97.4161,262.6981,6.7632e-05,6.87e-06,0.0,0 STARLINK-3691,1 51960U 22025E   24179.55690625  .00000687  00000-0  67632-4 0  9992,2 51960  53.0553 299.4047 0001351  97.4161 262.6981 15.04769684128473,6930.35,95.696,553.151,551.278,0.0
51960.0,STARLINK-3691,PAYLOAD,2024-06-27 19:44:30,15.04792937,0.0001367,53.0557,298.2166,84.8895,275.2249,-0.00013426,-2.192e-05,0.0,0 STARLINK-3691,1 51960U 22025E   24179.82257162 -.00002192  00000-0 -13426-3 0  9993,2 51960  53.0557 298.2166 0001367  84.8895 275.2249 15.04792937128516,6930.278,95.694,553.091,551.196,0.0
51960.0,STARLINK-3691,PAYLOAD,2024-06-28 00:31:27,15.04756339,0.0002092,53.056,297.3218,88.4633,271.6595,-5.9038e-05,-1.119e-05,0.0,0 STARLINK-3691,1 51960U 22025E   24180.02185167 -.00001119  00000-0 -59038-4 0  9990,2 51960  53.0560 297.3218 0002092  88.4633 271.6595 15.04756339128547,6930.391,95.697,553.706,550.806,0.0
51960.0,STARLINK-3691,PAYLOAD,2024-06-28 13:16:35,15.04769918,0.0001307,53.0544,294.9452,91.0551,269.0587,9.0371e-05,1.012e-05,0.0,0 STARLINK-3691,1 51960U 22025E   24180.55318873  .00001012  00000-0  90371-4 0  9995,2 51960  53.0544 294.9452 0001307  91.0551 269.0587 15.04769918128627,6930.349,95.696,553.12,551.308,0.0
51960.0,STARLINK-3691,PAYLOAD,2024-06-28 14:52:12,15.04785744,0.000121,53.0542,294.6475,91.475,268.6377,0.00022655,2.955e-05,0.0,0 STARLINK-3691,1 51960U 22025E   24180.61959402  .00002955  00000-0  22655-3 0  9997,2 51960  53.0542 294.6475 0001210  91.4750 268.6377 15.04785744127542,6930.3,95.695,553.004,551.327,0.0
51960.0,STARLINK-3691,PAYLOAD,2024-06-28 18:03:29,15.04788729,0.0001291,53.0551,294.0527,94.9135,265.2,0.00028156,3.741e-05,0.0,0 STARLINK-3691,1 51960U 22025E   24180.75242755  .00003741  00000-0  28156-3 0  9994,2 51960  53.0551 294.0527 0001291  94.9135 265.2000 15.04788729128653,6930.291,95.694,553.051,551.262,0.0
51960.0,STARLINK-3691,PAYLOAD,2024-06-29 00:26:06,15.04763218,0.0001933,53.055,292.858,65.5446,294.5744,-5.7826e-05,-1.101e-05,0.0,0 STARLINK-3691,1 51960U 22025E   24181.01813003 -.00001101  00000-0 -57826-4 0  9991,2 51960  53.0550 292.8580 0001933  65.5446 294.5744 15.04763218128699,6930.37,95.696,553.574,550.895,0.0
51960.0,STARLINK-3691,PAYLOAD,2024-06-29 13:11:16,15.04741643,0.0001345,53.0541,290.4861,84.883,275.2311,-0.00021194,-3.295e-05,0.0,0 STARLINK-3691,1 51960U 22025E   24181.54950165 -.00003295  00000-0 -21194-3 0  9994,2 51960  53.0541 290.4861 0001345  84.8830 275.2311 15.04741643128776,6930.436,95.697,553.233,551.369,0.0
51960.0,STARLINK-3691,PAYLOAD,2024-06-29 14:46:54,15.04750675,0.000119,53.0546,290.1859,80.3104,279.8018,-0.00014069,-2.281e-05,0.0,0 STARLINK-3691,1 51960U 22025E   24181.61591364 -.00002281  00000-0 -14069-3 0  9991,2 51960  53.0546 290.1859 0001190  80.3104 279.8018 15.04750675127697,6930.408,95.697,553.098,551.448,0.0
51960.0,STARLINK-3691,PAYLOAD,2024-06-29 16:22:33,15.04752836,0.0001155,53.0548,289.8879,86.5598,273.5522,-0.00012246,-2.021e-05,0.0,0 STARLINK-3691,1 51960U 22025E   24181.68233093 -.00002021  00000-0 -12246-3 0  9997,2 51960  53.0548 289.8879 0001155  86.5598 273.5522 15.04752836128796,6930.401,95.697,553.067,551.466,0.0
51960.0,STARLINK-3691,PAYLOAD,2024-06-30 00:20:45,15.04762453,0.0001369,53.0554,288.4039,81.2625,278.8519,-1.5433e-05,-4.97e-06,0.0,0 STARLINK-3691,1 51960U 22025E   24182.01441999 -.00000497  00000-0 -15433-4 0  9998,2 51960  53.0554 288.4039 0001369  81.2625 278.8519 15.04762453128842,6930.372,95.696,553.186,551.288,0.0
51960.0,STARLINK-3691,PAYLOAD,2024-06-30 13:05:53,15.04780679,0.0001208,53.0539,286.0251,77.8085,282.3039,0.000262,3.461e-05,0.0,0 STARLINK-3691,1 51960U 22025E   24182.54575993  .00003461  00000-0  26200-3 0  9993,2 51960  53.0539 286.0251 0001208  77.8085 282.3039 15.04780679128924,6930.316,95.695,553.018,551.344,0.0
51960.0,STARLINK-3691,PAYLOAD,2024-06-30 14:41:32,15.04782267,0.0001252,53.0538,285.7265,74.3842,285.7284,0.00057524,7.936e-05,0.0,0 STARLINK-3691,1 51960U 22025E   24182.61218125  .00007936  00000-0  57524-3 0  9996,2 51960  53.0538 285.7265 0001252  74.3842 285.7284 15.04782267127840,6930.311,95.695,553.044,551.308,0.0
51960.0,STARLINK-3691,PAYLOAD,2024-06-30 16:17:11,15.04786063,0.0001209,53.0531,285.4273,70.1357,289.9761,0.0014153,0.00019966,0.0,0 STARLINK-3691,1 51960U 22025E   24182.67860440  .00019966  00000-0  14153-2 0  9991,2 51960  53.0531 285.4273 0001209  70.1357 289.9761 15.04786063127851,6930.299,95.695,553.002,551.327,0.0
51960.0,STARLINK-3691,PAYLOAD,2024-07-01 13:00:32,15.04786596,0.0001259,53.053,281.559,85.282,274.8312,0.00050984,7.002e-05,0.0,0 STARLINK-3691,1 51960U 22025E   24183.54204322  .00007002  00000-0  50984-3 0  9990,2 51960  53.0530 281.5590 0001259  85.2820 274.8312 15.04786596129078,6930.298,95.695,553.035,551.29,0.0
51960.0,STARLINK-3691,PAYLOAD,2024-07-02 00:10:02,15.04783732,0.0001054,53.0517,279.4826,51.4701,308.6382,0.00055373,7.629e-05,0.0,0 STARLINK-3691,1 51960U 22025E   24184.00697221  .00007629  00000-0  55373-3 0  9998,2 51960  53.0517 279.4826 0001054  51.4701 308.6382 15.04783732129147,6930.307,95.695,552.902,551.441,0.0
51960.0,STARLINK-3691,PAYLOAD,2024-07-02 12:55:11,15.04773881,0.0001347,53.0515,277.1006,84.5215,275.5927,0.00030737,4.108e-05,0.0,0 STARLINK-3691,1 51960U 22025E   24184.53832299  .00004108  00000-0  30737-3 0  9998,2 51960  53.0515 277.1006 0001347  84.5215 275.5927 15.04773881129222,6930.337,95.695,553.135,551.268,0.0
51960.0,STARLINK-3691,PAYLOAD,2024-07-02 16:06:28,15.04770817,0.0001275,53.0535,276.5057,88.0476,272.0658,0.00077448,0.00010781,0.0,0 STARLINK-3691,1 51960U 22025E   24184.67116241  .00010781  00000-0  77448-3 0  9999,2 51960  53.0535 276.5057 0001275  88.0476 272.0658 15.04770817128151,6930.346,95.696,553.095,551.328,0.0
51960.0,STARLINK-3691,PAYLOAD,2024-07-03 12:49:50,15.04763453,0.0001284,53.0512,272.6384,85.0773,275.0361,0.00020344,2.624e-05,0.0,0 STARLINK-3691,1 51960U 22025E   24185.53461240  .00002624  00000-0  20344-3 0  9997,2 51960  53.0512 272.6384 0001284  85.0773 275.0361 15.04763453129370,6930.369,95.696,553.124,551.344,0.0
51960.0,STARLINK-3691,PAYLOAD,2024-07-03 22:23:42,15.04766593,0.0001304,53.0512,270.8543,85.2,274.9137,0.00021952,2.854e-05,0.0,0 STARLINK-3691,1 51960U 22025E   24185.93312547  .00002854  00000-0  21952-3 0  9997,2 51960  53.0512 270.8543 0001304  85.2000 274.9137 15.04766593128348,6930.359,95.696,553.128,551.321,0.0
51960.0,STARLINK-3691,PAYLOAD,2024-07-04 12:44:28,15.0478019,0.0001221,53.054,268.18,87.4514,272.6614,0.00051448,7.067e-05,0.0,0 STARLINK-3691,1 51960U 22025E   24186.53089075  .00007067  00000-0  51448-3 0  9995,2 51960  53.0540 268.1800 0001221  87.4514 272.6614 15.04780190128431,6930.317,95.695,553.029,551.336,0.0
51960.0,STARLINK-3691,PAYLOAD,2024-07-04 22:18:20,15.04783611,0.0001181,53.0542,266.3965,89.2777,270.8346,0.00051534,7.08e-05,0.0,0 STARLINK-3691,1 51960U 22025E   24186.92940083  .00007080  00000-0  51534-3 0  9994,2 51960  53.0542 266.3965 0001181  89.2777 270.8346 15.04783611128490,6930.307,95.695,552.99,551.354,0.0
51960.0,STARLINK-3691,PAYLOAD,2024-07-05 12:39:07,15.04778467,0.0001266,53.0535,263.7193,77.5011,282.6119,0.00027317,3.62e-05,0.0,0 STARLINK-3691,1 51960U 22025E   24187.52716894  .00003620  00000-0  27317-3 0  9990,2 51960  53.0535 263.7193 0001266  77.5011 282.6119 15.04778467129674,6930.323,95.695,553.065,551.31,0.0
51960.0,STARLINK-3691,PAYLOAD,2024-07-05 22:12:58,15.04772497,0.0001415,53.0531,261.9339,82.0918,278.0231,6.8001e-05,6.93e-06,0.0,0 STARLINK-3691,1 51960U 22025E   24187.92568230  .00000693  00000-0  68001-4 0  9996,2 51960  53.0531 261.9339 0001415  82.0918 278.0231 15.04772497128642,6930.341,95.696,553.187,551.225,0.0
51960.0,STARLINK-3691,PAYLOAD,2024-07-06 04:35:33,15.04768702,0.0001429,53.0533,260.746,83.0373,277.0778,-5.5748e-06,-3.57e-06,0.0,0 STARLINK-3691,1 51960U 22025E   24188.19135868 -.00000357  00000-0 -55748-5 0  9997,2 51960  53.0533 260.7460 0001429  83.0373 277.0778 15.04768702129771,6930.353,95.696,553.208,551.227,0.0
51960.0,STARLINK-3691,PAYLOAD,2024-07-06 14:09:24,15.04768942,0.0001284,53.0528,258.9598,85.2461,274.8674,1.8555e-05,-1.2e-07,0.0,0 STARLINK-3691,1 51960U 22025E   24188.58987167 -.00000012  00000-0  18555-4 0  9998,2 51960  53.0528 258.9598 0001284  85.2461 274.8674 15.04768942128749,6930.352,95.696,553.107,551.327,0.0
51960.0,STARLINK-3691,PAYLOAD,2024-07-06 22:07:37,15.04766993,0.0001241,53.0529,257.4724,80.5934,279.5194,3.1538e-05,1.73e-06,0.0,0 STARLINK-3691,1 51960U 22025E   24188.92196680  .00000173  00000-0  31538-4 0  9991,2 51960  53.0529 257.4724 0001241  80.5934 279.5194 15.04766993128799,6930.358,95.696,553.083,551.363,0.0
